[{"OBJECT_NAME":"SAUDICOMSAT 2","OBJECT_ID":"2004-025E","EPOCH":"2026-03-09T23:03:17.488512","MEAN_MOTION":14.49909502,"ECCENTRICITY":0.00552225,"INCLINATION":98.6687,"RA_OF_ASC_NODE":78.3866,"ARG_OF_PERICENTER":199.0256,"MEAN_ANOMALY":160.8875,"EPHEMERIS_TYPE":0,"CLASSIFICATION_TYPE":"U","NORAD_CAT_ID":28370,"ELEMENT_SET_NO":999,"REV_AT_EPOCH":14572,"BSTAR":0.00011691026,"MEAN_MOTION_DOT":4.11e-6,"MEAN_MOTION_DDOT":0},{"OBJECT_NAME":"OPS 1264 (DMSP 4A F4)","OBJECT_ID":"1967-096A","EPOCH":"2026-03-09T17:41:20.597280","MEAN_MOTION":14.62887578,"ECCENTRICITY":0.00940355,"INCLINATION":99.1905,"RA_OF_ASC_NODE":133.4241,"ARG_OF_PERICENTER":54.8064,"MEAN_ANOMALY":306.1896,"EPHEMERIS_TYPE":0,"CLASSIFICATION_TYPE":"U","NORAD_CAT_ID":2980,"ELEMENT_SET_NO":999,"REV_AT_EPOCH":7258,"BSTAR":0.00013627919,"MEAN_MOTION_DOT":6.79e-6,"MEAN_MOTION_DDOT":0}]
